[{"OBJECT_NAME":"QIANFAN-1","OBJECT_ID":"2024-140A","EPOCH":"2026-03-06T05:40:48.002880","MEAN_MOTION":13.50999648,"ECCENTRICITY":0.00170361,"INCLINATION":88.9715,"RA_OF_ASC_NODE":290.6442,"ARG_OF_PERICENTER":339.6747,"MEAN_ANOMALY":20.3724,"EPHEMERIS_TYPE":0,"CLASSIFICATION_TYPE":"U","NORAD_CAT_ID":60379,"ELEMENT_SET_NO":999,"REV_AT_EPOCH":7862,"BSTAR":0.00013549667,"MEAN_MOTION_DOT":9.9e-7,"MEAN_MOTION_DDOT":0},{"OBJECT_NAME":"QIANFAN-2","OBJECT_ID":"2024-140B","EPOCH":"2026-03-06T06:22:09.842880","MEAN_MOTION":13.51003759,"ECCENTRICITY":0.00115552,"INCLINATION":88.9701,"RA_OF_ASC_NODE":290.4689,"ARG_OF_PERICENTER":312.4085,"MEAN_ANOMALY":47.6088,"EPHEMERIS_TYPE":0,"CLASSIFICATION_TYPE":"U","NORAD_CAT_ID":60380,"ELEMENT_SET_NO":999,"REV_AT_EPOCH":7868,"BSTAR":0.00013104332,"MEAN_MOTION_DOT":9.7e-7,"MEAN_MOTION_DDOT":0},{"OBJECT_NAME":"QIANFAN-3","OBJECT_ID":"2024-140C","EPOCH":"2026-03-06T06:33:55.048320","MEAN_MOTION":13.50999753,"ECCENTRICITY":0.00130245,"INCLINATION":88.9693,"RA_OF_ASC_NODE":290.5944,"ARG_OF_PERICENTER":325.3603,"MEAN_ANOMALY":34.6698,"EPHEMERIS_TYPE":0,"CLASSIFICATION_TYPE":"U","NORAD_CAT_ID":60381,"ELEMENT_SET_NO":999,"REV_AT_EPOCH":7859,"BSTAR":0.00014661835,"MEAN_MOTION_DOT":1.07e-6,"MEAN_MOTION_DDOT":0},{"OBJECT_NAME":"QIANFAN-4","OBJECT_ID":"2024-140D","EPOCH":"2026-03-06T05:58:31.124640","MEAN_MOTION":13.51000105,"ECCENTRICITY":0.00118525,"INCLINATION":88.9718,"RA_OF_ASC_NODE":290.5157,"ARG_OF_PERICENTER":315.1828,"MEAN_ANOMALY":44.8365,"EPHEMERIS_TYPE":0,"CLASSIFICATION_TYPE":"U","NORAD_CAT_ID":60382,"ELEMENT_SET_NO":999,"REV_AT_EPOCH":7871,"BSTAR":0.00015613231,"MEAN_MOTION_DOT":1.13e-6,"MEAN_MOTION_DDOT":0},{"OBJECT_NAME":"QIANFAN-5","OBJECT_ID":"2024-140E","EPOCH":"2026-03-06T05:23:00.118752","MEAN_MOTION":13.51002029,"ECCENTRICITY":0.00146219,"INCLINATION":88.9693,"RA_OF_ASC_NODE":290.6248,"ARG_OF_PERICENTER":336.6462,"MEAN_ANOMALY":23.4023,"EPHEMERIS_TYPE":0,"CLASSIFICATION_TYPE":"U","NORAD_CAT_ID":60383,"ELEMENT_SET_NO":999,"REV_AT_EPOCH":7857,"BSTAR":0.00011567854,"MEAN_MOTION_DOT":8.7e-7,"MEAN_MOTION_DDOT":0},{"OBJECT_NAME":"QIANFAN-6","OBJECT_ID":"2024-140F","EPOCH":"2026-03-06T05:52:38.030304","MEAN_MOTION":13.51001826,"ECCENTRICITY":0.00121169,"INCLINATION":88.9719,"RA_OF_ASC_NODE":290.3913,"ARG_OF_PERICENTER":321.515,"MEAN_ANOMALY":38.5136,"EPHEMERIS_TYPE":0,"CLASSIFICATION_TYPE":"U","NORAD_CAT_ID":60384,"ELEMENT_SET_NO":999,"REV_AT_EPOCH":7877,"BSTAR":0.0001349992,"MEAN_MOTION_DOT":9.9e-7,"MEAN_MOTION_DDOT":0},{"OBJECT_NAME":"QIANFAN-7","OBJECT_ID":"2024-140G","EPOCH":"2026-03-06T06:54:34.687872","MEAN_MOTION":14.27772817,"ECCENTRICITY":0.00166678,"INCLINATION":88.9732,"RA_OF_ASC_NODE":283.9102,"ARG_OF_PERICENTER":121.1948,"MEAN_ANOMALY":239.0883,"EPHEMERIS_TYPE":0,"CLASSIFICATION_TYPE":"U","NORAD_CAT_ID":60385,"ELEMENT_SET_NO":999,"REV_AT_EPOCH":8231,"BSTAR":0.00015083972,"MEAN_MOTION_DOT":3.88e-6,"MEAN_MOTION_DDOT":0},{"OBJECT_NAME":"QIANFAN-8","OBJECT_ID":"2024-140H","EPOCH":"2026-03-06T06:04:28.004160","MEAN_MOTION":13.51003392,"ECCENTRICITY":0.00156211,"INCLINATION":88.9721,"RA_OF_ASC_NODE":290.6292,"ARG_OF_PERICENTER":322.3426,"MEAN_ANOMALY":37.663,"EPHEMERIS_TYPE":0,"CLASSIFICATION_TYPE":"U","NORAD_CAT_ID":60386,"ELEMENT_SET_NO":999,"REV_AT_EPOCH":7862,"BSTAR":0.00014996647,"MEAN_MOTION_DOT":1.09e-6,"MEAN_MOTION_DDOT":0},{"OBJECT_NAME":"QIANFAN-9","OBJECT_ID":"2024-140J","EPOCH":"2026-03-06T05:28:54.702624","MEAN_MOTION":13.50998152,"ECCENTRICITY":0.00153147,"INCLINATION":88.972,"RA_OF_ASC_NODE":290.7055,"ARG_OF_PERICENTER":322.2488,"MEAN_ANOMALY":37.7587,"EPHEMERIS_TYPE":0,"CLASSIFICATION_TYPE":"U","NORAD_CAT_ID":60387,"ELEMENT_SET_NO":999,"REV_AT_EPOCH":7860,"BSTAR":0.00012955724,"MEAN_MOTION_DOT":9.6e-7,"MEAN_MOTION_DDOT":0},{"OBJECT_NAME":"QIANFAN-10","OBJECT_ID":"2024-140K","EPOCH":"2026-03-06T05:34:40.190304","MEAN_MOTION":13.50996566,"ECCENTRICITY":0.00132251,"INCLINATION":88.9729,"RA_OF_ASC_NODE":290.0602,"ARG_OF_PERICENTER":298.2131,"MEAN_ANOMALY":61.7684,"EPHEMERIS_TYPE":0,"CLASSIFICATION_TYPE":"U","NORAD_CAT_ID":60388,"ELEMENT_SET_NO":999,"REV_AT_EPOCH":7873,"BSTAR":0.00013476418,"MEAN_MOTION_DOT":9.9e-7,"MEAN_MOTION_DDOT":0},{"OBJECT_NAME":"QIANFAN-11","OBJECT_ID":"2024-140L","EPOCH":"2026-03-06T06:28:11.776800","MEAN_MOTION":13.5100341,"ECCENTRICITY":0.00133346,"INCLINATION":88.9655,"RA_OF_ASC_NODE":290.5813,"ARG_OF_PERICENTER":322.6601,"MEAN_ANOMALY":37.3622,"EPHEMERIS_TYPE":0,"CLASSIFICATION_TYPE":"U","NORAD_CAT_ID":60389,"ELEMENT_SET_NO":999,"REV_AT_EPOCH":7839,"BSTAR":0.00014578111,"MEAN_MOTION_DOT":1.06e-6,"MEAN_MOTION_DDOT":0},{"OBJECT_NAME":"QIANFAN-12","OBJECT_ID":"2024-140M","EPOCH":"2026-03-06T05:11:10.647744","MEAN_MOTION":13.51001082,"ECCENTRICITY":0.00124153,"INCLINATION":88.9698,"RA_OF_ASC_NODE":290.6668,"ARG_OF_PERICENTER":332.1327,"MEAN_ANOMALY":27.9158,"EPHEMERIS_TYPE":0,"CLASSIFICATION_TYPE":"U","NORAD_CAT_ID":60390,"ELEMENT_SET_NO":999,"REV_AT_EPOCH":7851,"BSTAR":0.00013202669,"MEAN_MOTION_DOT":9.7e-7,"MEAN_MOTION_DDOT":0},{"OBJECT_NAME":"QIANFAN-13","OBJECT_ID":"2024-140N","EPOCH":"2026-03-06T06:16:18.865344","MEAN_MOTION":13.51001531,"ECCENTRICITY":0.00123107,"INCLINATION":88.971,"RA_OF_ASC_NODE":290.7722,"ARG_OF_PERICENTER":334.9153,"MEAN_ANOMALY":25.1399,"EPHEMERIS_TYPE":0,"CLASSIFICATION_TYPE":"U","NORAD_CAT_ID":60391,"ELEMENT_SET_NO":999,"REV_AT_EPOCH":7854,"BSTAR":0.00013460602,"MEAN_MOTION_DOT":9.9e-7,"MEAN_MOTION_DDOT":0},{"OBJECT_NAME":"QIANFAN-14","OBJECT_ID":"2024-140P","EPOCH":"2026-03-06T06:51:45.924480","MEAN_MOTION":13.51001389,"ECCENTRICITY":0.00159724,"INCLINATION":88.9689,"RA_OF_ASC_NODE":290.6494,"ARG_OF_PERICENTER":332.9465,"MEAN_ANOMALY":27.0852,"EPHEMERIS_TYPE":0,"CLASSIFICATION_TYPE":"U","NORAD_CAT_ID":60392,"ELEMENT_SET_NO":999,"REV_AT_EPOCH":7855,"BSTAR":0.00015275243,"MEAN_MOTION_DOT":1.11e-6,"MEAN_MOTION_DDOT":0},{"OBJECT_NAME":"QIANFAN-15","OBJECT_ID":"2024-140Q","EPOCH":"2026-03-06T05:17:10.576320","MEAN_MOTION":13.50999201,"ECCENTRICITY":0.00113871,"INCLINATION":88.9713,"RA_OF_ASC_NODE":290.6326,"ARG_OF_PERICENTER":320.6695,"MEAN_ANOMALY":39.3628,"EPHEMERIS_TYPE":0,"CLASSIFICATION_TYPE":"U","NORAD_CAT_ID":60393,"ELEMENT_SET_NO":999,"REV_AT_EPOCH":7853,"BSTAR":0.00010773325,"MEAN_MOTION_DOT":8.2e-7,"MEAN_MOTION_DDOT":0},{"OBJECT_NAME":"QIANFAN-16","OBJECT_ID":"2024-140R","EPOCH":"2026-03-06T06:45:49.346496","MEAN_MOTION":13.50997911,"ECCENTRICITY":0.00140386,"INCLINATION":88.9716,"RA_OF_ASC_NODE":290.7488,"ARG_OF_PERICENTER":337.9356,"MEAN_ANOMALY":22.119,"EPHEMERIS_TYPE":0,"CLASSIFICATION_TYPE":"U","NORAD_CAT_ID":60394,"ELEMENT_SET_NO":999,"REV_AT_EPOCH":7845,"BSTAR":0.00017025328,"MEAN_MOTION_DOT":1.22e-6,"MEAN_MOTION_DDOT":0},{"OBJECT_NAME":"QIANFAN-17","OBJECT_ID":"2024-140S","EPOCH":"2026-03-06T04:53:23.857440","MEAN_MOTION":13.51004568,"ECCENTRICITY":0.00142376,"INCLINATION":88.9727,"RA_OF_ASC_NODE":290.8121,"ARG_OF_PERICENTER":331.3842,"MEAN_ANOMALY":28.6526,"EPHEMERIS_TYPE":0,"CLASSIFICATION_TYPE":"U","NORAD_CAT_ID":60395,"ELEMENT_SET_NO":999,"REV_AT_EPOCH":7940,"BSTAR":0.00014629803,"MEAN_MOTION_DOT":1.06e-6,"MEAN_MOTION_DDOT":0}]
