QIANFAN-1               
1 60379U 24140A   26065.23666670  .00000099  00000+0  13550-3 0  9995
2 60379  88.9715 290.6442 0017036 339.6747  20.3724 13.50999648 78623
QIANFAN-2               
1 60380U 24140B   26065.26539170  .00000097  00000+0  13104-3 0  9997
2 60380  88.9701 290.4689 0011555 312.4085  47.6088 13.51003759 78686
QIANFAN-3               
1 60381U 24140C   26065.27355380  .00000107  00000+0  14662-3 0  9990
2 60381  88.9693 290.5944 0013024 325.3603  34.6698 13.50999753 78594
QIANFAN-4               
1 60382U 24140D   26065.24897135  .00000113  00000+0  15613-3 0  9991
2 60382  88.9718 290.5157 0011852 315.1828  44.8365 13.51000105 78715
QIANFAN-5               
1 60383U 24140E   26065.22430693  .00000087  00000+0  11568-3 0  9997
2 60383  88.9693 290.6248 0014621 336.6462  23.4023 13.51002029 78574
QIANFAN-6               
1 60384U 24140F   26065.24488461  .00000099  00000+0  13500-3 0  9997
2 60384  88.9719 290.3913 0012116 321.5150  38.5136 13.51001826 78772
QIANFAN-7               
1 60385U 24140G   26065.28790148  .00000388  00000+0  15084-3 0  9990
2 60385  88.9732 283.9102 0016667 121.1948 239.0883 14.27772817 82311
QIANFAN-8               
1 60386U 24140H   26065.25310190  .00000109  00000+0  14997-3 0  9996
2 60386  88.9721 290.6292 0015621 322.3426  37.6630 13.51003392 78622
QIANFAN-9               
1 60387U 24140J   26065.22841091  .00000096  00000+0  12956-3 0  9991
2 60387  88.9720 290.7055 0015314 322.2488  37.7587 13.50998152 78602
QIANFAN-10              
1 60388U 24140K   26065.23240961  .00000099  00000+0  13476-3 0  9993
2 60388  88.9729 290.0602 0013225 298.2131  61.7684 13.50996566 78735
QIANFAN-11              
1 60389U 24140L   26065.26958075  .00000106  00000+0  14578-3 0  9992
2 60389  88.9655 290.5813 0013334 322.6601  37.3622 13.51003410 78399
QIANFAN-12              
1 60390U 24140M   26065.21609546  .00000097  00000+0  13203-3 0  9998
2 60390  88.9698 290.6668 0012415 332.1327  27.9158 13.51001082 78513
QIANFAN-13              
1 60391U 24140N   26065.26132946  .00000099  00000+0  13461-3 0  9997
2 60391  88.9710 290.7722 0012310 334.9153  25.1399 13.51001531 78541
QIANFAN-14              
1 60392U 24140P   26065.28594820  .00000111  00000+0  15275-3 0  9993
2 60392  88.9689 290.6494 0015972 332.9465  27.0852 13.51001389 78550
QIANFAN-15              
1 60393U 24140Q   26065.22026130  .00000082  00000+0  10773-3 0  9997
2 60393  88.9713 290.6326 0011387 320.6695  39.3628 13.50999201 78531
QIANFAN-16              
1 60394U 24140R   26065.28182114  .00000122  00000+0  17025-3 0  9991
2 60394  88.9716 290.7488 0014038 337.9356  22.1190 13.50997911 78457
QIANFAN-17              
1 60395U 24140S   26065.20374835  .00000106  00000+0  14630-3 0  9998
2 60395  88.9727 290.8121 0014237 331.3842  28.6526 13.51004568 79402
